CCSDS_OMM_VERS = 2.0
CREATION_DATE  = 
ORIGINATOR     = 

OBJECT_NAME    = SL-16 R/B
OBJECT_ID      = 1998-045B
CENTER_NAME    = EARTH
REF_FRAME      = TEME
TIME_SYSTEM    = UTC
MEAN_ELEMENT_THEORY = SGP/SGP4

EPOCH          = 2026-03-29T05:01:08.178816
MEAN_MOTION    = 14.16193902
ECCENTRICITY   = .0007995
INCLINATION    = 71.0100
RA_OF_ASC_NODE = 140.5278
ARG_OF_PERICENTER = 338.0712
MEAN_ANOMALY   = 22.0068

EPHEMERIS_TYPE = 0
CLASSIFICATION_TYPE = U
NORAD_CAT_ID   = 25407
ELEMENT_SET_NO = 999
REV_AT_EPOCH   = 42986
BSTAR          = -.94285E-4
MEAN_MOTION_DOT = -.235E-5
MEAN_MOTION_DDOT = 0

CCSDS_OMM_VERS = 2.0
CREATION_DATE  = 
ORIGINATOR     = 

OBJECT_NAME    = ISS (ZARYA)
OBJECT_ID      = 1998-067A
CENTER_NAME    = EARTH
REF_FRAME      = TEME
TIME_SYSTEM    = UTC
MEAN_ELEMENT_THEORY = SGP/SGP4

EPOCH          = 2026-03-29T03:11:03.043104
MEAN_MOTION    = 15.48624340
ECCENTRICITY   = .0006215
INCLINATION    = 51.6344
RA_OF_ASC_NODE = 336.2407
ARG_OF_PERICENTER = 245.2164
MEAN_ANOMALY   = 114.8178

EPHEMERIS_TYPE = 0
CLASSIFICATION_TYPE = U
NORAD_CAT_ID   = 25544
ELEMENT_SET_NO = 999
REV_AT_EPOCH   = 55934
BSTAR          = .23326E-3
MEAN_MOTION_DOT = .1226E-3
MEAN_MOTION_DDOT = 0

CCSDS_OMM_VERS = 2.0
CREATION_DATE  = 
ORIGINATOR     = 

OBJECT_NAME    = CZ-4B R/B
OBJECT_ID      = 1999-025C
CENTER_NAME    = EARTH
REF_FRAME      = TEME
TIME_SYSTEM    = UTC
MEAN_ELEMENT_THEORY = SGP/SGP4

EPOCH          = 2026-03-29T03:17:58.776576
MEAN_MOTION    = 14.18269059
ECCENTRICITY   = .0036026
INCLINATION    = 98.6586
RA_OF_ASC_NODE = 131.9549
ARG_OF_PERICENTER = 289.4450
MEAN_ANOMALY   = 135.2842

EPHEMERIS_TYPE = 0
CLASSIFICATION_TYPE = U
NORAD_CAT_ID   = 25732
ELEMENT_SET_NO = 999
REV_AT_EPOCH   = 39092
BSTAR          = .42952E-4
MEAN_MOTION_DOT = .46E-6
MEAN_MOTION_DDOT = 0

CCSDS_OMM_VERS = 2.0
CREATION_DATE  = 
ORIGINATOR     = 

OBJECT_NAME    = OKEAN-O
OBJECT_ID      = 1999-039A
CENTER_NAME    = EARTH
REF_FRAME      = TEME
TIME_SYSTEM    = UTC
MEAN_ELEMENT_THEORY = SGP/SGP4

EPOCH          = 2026-03-29T04:28:12.571968
MEAN_MOTION    = 14.80366866
ECCENTRICITY   = .0000863
INCLINATION    = 97.9402
RA_OF_ASC_NODE = 147.8757
ARG_OF_PERICENTER = 92.9154
MEAN_ANOMALY   = 267.2157

EPHEMERIS_TYPE = 0
CLASSIFICATION_TYPE = U
NORAD_CAT_ID   = 25860
ELEMENT_SET_NO = 999
REV_AT_EPOCH   = 43727
BSTAR          = .11911E-3
MEAN_MOTION_DOT = .857E-5
MEAN_MOTION_DDOT = 0

CCSDS_OMM_VERS = 2.0
CREATION_DATE  = 
ORIGINATOR     = 

OBJECT_NAME    = SL-16 R/B
OBJECT_ID      = 1999-039B
CENTER_NAME    = EARTH
REF_FRAME      = TEME
TIME_SYSTEM    = UTC
MEAN_ELEMENT_THEORY = SGP/SGP4

EPOCH          = 2026-03-29T03:32:50.241408
MEAN_MOTION    = 14.81757578
ECCENTRICITY   = .001458
INCLINATION    = 97.9924
RA_OF_ASC_NODE = 147.2114
ARG_OF_PERICENTER = 189.1889
MEAN_ANOMALY   = 170.9059

EPHEMERIS_TYPE = 0
CLASSIFICATION_TYPE = U
NORAD_CAT_ID   = 25861
ELEMENT_SET_NO = 999
REV_AT_EPOCH   = 43974
BSTAR          = .87488E-4
MEAN_MOTION_DOT = .637E-5
MEAN_MOTION_DDOT = 0

CCSDS_OMM_VERS = 2.0
CREATION_DATE  = 
ORIGINATOR     = 

OBJECT_NAME    = DELTA 2 R/B
OBJECT_ID      = 1999-041E
CENTER_NAME    = EARTH
REF_FRAME      = TEME
TIME_SYSTEM    = UTC
MEAN_ELEMENT_THEORY = SGP/SGP4

EPOCH          = 2026-03-29T01:13:18.103008
MEAN_MOTION    = 14.11880849
ECCENTRICITY   = .0502663
INCLINATION    = 51.7607
RA_OF_ASC_NODE = 223.9376
ARG_OF_PERICENTER = 45.5292
MEAN_ANOMALY   = 318.5620

EPHEMERIS_TYPE = 0
CLASSIFICATION_TYPE = U
NORAD_CAT_ID   = 25876
ELEMENT_SET_NO = 999
REV_AT_EPOCH   = 36576
BSTAR          = .19266E-3
MEAN_MOTION_DOT = .953E-5
MEAN_MOTION_DDOT = 0

CCSDS_OMM_VERS = 2.0
CREATION_DATE  = 
ORIGINATOR     = 

OBJECT_NAME    = HELIOS 1B
OBJECT_ID      = 1999-064A
CENTER_NAME    = EARTH
REF_FRAME      = TEME
TIME_SYSTEM    = UTC
MEAN_ELEMENT_THEORY = SGP/SGP4

EPOCH          = 2026-03-29T03:37:40.983456
MEAN_MOTION    = 14.87773610
ECCENTRICITY   = .0001798
INCLINATION    = 98.1674
RA_OF_ASC_NODE = 350.9646
ARG_OF_PERICENTER = 48.0746
MEAN_ANOMALY   = 312.0622

EPHEMERIS_TYPE = 0
CLASSIFICATION_TYPE = U
NORAD_CAT_ID   = 25977
ELEMENT_SET_NO = 999
REV_AT_EPOCH   = 68815
BSTAR          = .24054E-3
MEAN_MOTION_DOT = .2137E-4
MEAN_MOTION_DDOT = 0

CCSDS_OMM_VERS = 2.0
CREATION_DATE  = 
ORIGINATOR     = 

OBJECT_NAME    = TERRA
OBJECT_ID      = 1999-068A
CENTER_NAME    = EARTH
REF_FRAME      = TEME
TIME_SYSTEM    = UTC
MEAN_ELEMENT_THEORY = SGP/SGP4

EPOCH          = 2026-03-29T04:00:15.432192
MEAN_MOTION    = 14.61034969
ECCENTRICITY   = .0003577
INCLINATION    = 97.9552
RA_OF_ASC_NODE = 140.8535
ARG_OF_PERICENTER = 110.9538
MEAN_ANOMALY   = 318.4372

EPHEMERIS_TYPE = 0
CLASSIFICATION_TYPE = U
NORAD_CAT_ID   = 25994
ELEMENT_SET_NO = 999
REV_AT_EPOCH   = 39792
BSTAR          = .10519E-3
MEAN_MOTION_DOT = .472E-5
MEAN_MOTION_DDOT = 0

CCSDS_OMM_VERS = 2.0
CREATION_DATE  = 
ORIGINATOR     = 

OBJECT_NAME    = SL-16 R/B
OBJECT_ID      = 2000-006B
CENTER_NAME    = EARTH
REF_FRAME      = TEME
TIME_SYSTEM    = UTC
MEAN_ELEMENT_THEORY = SGP/SGP4

EPOCH          = 2026-03-29T03:48:57.299328
MEAN_MOTION    = 14.15827468
ECCENTRICITY   = .0015702
INCLINATION    = 71.0022
RA_OF_ASC_NODE = 56.8960
ARG_OF_PERICENTER = 159.3680
MEAN_ANOMALY   = 200.8080

EPHEMERIS_TYPE = 0
CLASSIFICATION_TYPE = U
NORAD_CAT_ID   = 26070
ELEMENT_SET_NO = 999
REV_AT_EPOCH   = 35131
BSTAR          = .19049E-3
MEAN_MOTION_DOT = .327E-5
MEAN_MOTION_DDOT = 0

CCSDS_OMM_VERS = 2.0
CREATION_DATE  = 
ORIGINATOR     = 

OBJECT_NAME    = TITAN 4B R/B
OBJECT_ID      = 2000-047B
CENTER_NAME    = EARTH
REF_FRAME      = TEME
TIME_SYSTEM    = UTC
MEAN_ELEMENT_THEORY = SGP/SGP4

EPOCH          = 2026-03-29T04:12:16.627680
MEAN_MOTION    = 15.09742293
ECCENTRICITY   = .0039844
INCLINATION    = 67.9914
RA_OF_ASC_NODE = 345.7122
ARG_OF_PERICENTER = 12.5623
MEAN_ANOMALY   = 347.6509

EPHEMERIS_TYPE = 0
CLASSIFICATION_TYPE = U
NORAD_CAT_ID   = 26474
ELEMENT_SET_NO = 999
REV_AT_EPOCH   = 39585
BSTAR          = .3186E-3
MEAN_MOTION_DOT = .5115E-4
MEAN_MOTION_DDOT = 0

CCSDS_OMM_VERS = 2.0
CREATION_DATE  = 
ORIGINATOR     = 

OBJECT_NAME    = ENVISAT
OBJECT_ID      = 2002-009A
CENTER_NAME    = EARTH
REF_FRAME      = TEME
TIME_SYSTEM    = UTC
MEAN_ELEMENT_THEORY = SGP/SGP4

EPOCH          = 2026-03-29T03:22:29.820288
MEAN_MOTION    = 14.39043539
ECCENTRICITY   = .0001212
INCLINATION    = 98.3758
RA_OF_ASC_NODE = 41.2786
ARG_OF_PERICENTER = 81.6265
MEAN_ANOMALY   = 289.7423

EPHEMERIS_TYPE = 0
CLASSIFICATION_TYPE = U
NORAD_CAT_ID   = 27386
ELEMENT_SET_NO = 999
REV_AT_EPOCH   = 26197
BSTAR          = .53123E-4
MEAN_MOTION_DOT = .121E-5
MEAN_MOTION_DDOT = 0

CCSDS_OMM_VERS = 2.0
CREATION_DATE  = 
ORIGINATOR     = 

OBJECT_NAME    = IDEFIX & ARIANE 42P R/B
OBJECT_ID      = 2002-021B
CENTER_NAME    = EARTH
REF_FRAME      = TEME
TIME_SYSTEM    = UTC
MEAN_ELEMENT_THEORY = SGP/SGP4

EPOCH          = 2026-03-28T22:24:16.521120
MEAN_MOTION    = 14.31038949
ECCENTRICITY   = .001259
INCLINATION    = 98.5892
RA_OF_ASC_NODE = 26.3123
ARG_OF_PERICENTER = 127.2690
MEAN_ANOMALY   = 232.9643

EPHEMERIS_TYPE = 0
CLASSIFICATION_TYPE = U
NORAD_CAT_ID   = 27422
ELEMENT_SET_NO = 999
REV_AT_EPOCH   = 24677
BSTAR          = .13012E-3
MEAN_MOTION_DOT = .299E-5
MEAN_MOTION_DDOT = 0

